IRIDIUM 136             
1 42962U 17061H   24059.17081733  .00000136  00000+0  41366-4 0  9991
2 42962  86.4009  16.2808 0001990  82.9891 277.1531 14.34217913334431
